#dP2024  1  2  0  0  0.00000000      96 __u+U IGS20 FIT  IAC
## 2295 172800.00000000   900.00000000 60311 0.0000000000000
+  118   C06C07C08C09C10C11C12C13C14C16C19C20C21C22C23C24C25
+        C26C27C28C29C30C32C33C34C35C36C37C38C39C40C41C42C43
+        C44C45C46E02E03E04E05E07E08E09E10E11E12E13E14E15E18
+        E19E21E24E25E26E27E30E31E33E34E36G01G02G03G04G05G06
+        G07G08G09G10G11G12G13G14G15G16G17G18G19G20G21G22G23
+        G24G25G26G28G29G30G31G32J02J04R01R02R03R04R05R07R08
+        R09R11R12R13R14R15R16R17R18R19R20R21R22R24R25R26  0
++         9  0  8  7  8  7  7  9  6  9  9  9  6  8  6  6  7
++         7  7  6  6  8  7  4  7  5  6  6  8  5  6  6  7  7
++         5  7  6  5  5  6  6  6  5  6  4  6  5  6  6  6  6
++         4  6  5  5  4  6  5  6  5  5  5  5  5  4  5  5  5
++         5  6  5  5  5  5  5  4  5  5  5  6  5  4  4  5  5
++         5  5  4  5  7  5  5  5  8  7  6  6  7  6  5  6  5
++         6  7  5  7  6  6  6  5  4  7  7  6  7  3  7 11  0
%c M  cc GPS ccc cccc cccc cccc cccc ccccc ccccc ccccc ccccc
%c cc cc ccc ccc cccc cccc cccc cccc ccccc ccccc ccccc ccccc
%f  0.0000000  0.000000000  0.00000000000  0.000000000000000
%f  0.0000000  0.000000000  0.00000000000  0.000000000000000
%i    0    0    0    0      0      0      0      0         0
%i    0    0    0    0      0      0      0      0         0
/* INFORMATION & ANALYSIS CENTER (IAC)      ULTRA-RAPID DATA
/* S/V CLOCKS ARE ALIGNED TO GNSS TIME                      
/* G:C1WC2W R:C1PC2P E:C1XC5X C:C2IC6I J:C1CC2S             
/* PCV:IGS20_2290 OL/AL:FES2004  NONE     YN ORB:CoN CLK:CoN
*  2024 01 02  4 30  0.00000000
PC06 -12559.424138  23206.440153  32860.961977     24.774842
PC07 -12435.451116  39975.704281  -5771.928458   -571.066298
PC08   2511.335845  33009.496442 -25957.045432    140.982919
PC09    103.350932  24752.661528  34575.155607   -297.440070
PC10  -7842.002328  40263.806632 -10553.852989    142.154730
PC11  25333.809754 -10203.938836   5779.939477    337.061909
PC12  24919.495438   2012.112181 -12352.921191    808.387183
PC13   7100.225754  35624.555427 -21009.376775    402.854984
PC14  15746.370666 -15620.574140  16915.875205   -121.664864
PC16 -13192.904882  22698.157222  33178.250530   -258.642775
PC19 -12304.504371  23265.757471  -9280.370216   -943.432249
PC20 -16610.365784   7516.402381 -21124.553752    -26.605884
PC21  11179.304843  14319.101637  21201.800230   -965.312034
PC22   -732.887896  26558.096275   8566.699878   -163.471733
PC23  -6693.194149 -22170.385466 -15583.535123   -795.378798
PC24  21984.486525   4621.524416 -16559.308390    750.305557
PC25   9863.021151 -13074.736318 -22610.694400    292.126827
PC26  21134.588327  18138.614494  -1419.991580   -228.804160
PC27 -19357.093967  -8018.143635  18411.203576    250.831651
PC28  -2165.163093 -15944.820505  22808.169921    190.081203
PC29 -18832.371110  15761.576525 -13252.096077    222.619454
PC30 -27015.182350   5219.476029   4579.633547    -12.594929
PC32 -11242.796918 -14318.405187 -21134.182395   -548.926173
PC33  12232.092523 -23246.062944   9406.624804   -942.100607
PC34  27033.233699  -6235.382830  -3135.637260    338.104963
PC35   2820.411629  15920.186163 -22751.429737    466.879110
PC36 -10807.654305  12248.492569  22637.964412    -68.880370
PC37 -20488.987370 -18951.909292    836.452548   -931.386790
PC38  -4767.791749  28960.829991 -30149.317755    127.872520
PC39 -19927.405531  21702.870686  30115.972471     -6.424015
PC40 -20173.337230  37020.155405  -3476.545303    -50.320706
PC41   1193.237282 -26760.277377  -7760.652096   -876.759980
PC42  16613.153393  -5700.487613  21721.689136   -471.544795
PC43  19588.245223 -15497.916230  12462.264749     54.745934
PC44  19570.693414   7503.408724 -18449.815786    341.204705
PC45   7066.209001  22190.218903  15344.095990    -59.873016
PC46 -21612.354372  -3858.249560  17239.081920   -112.307510
PE02  -8722.167266 -28061.907529   3650.204905     91.616833
PE03  -3347.717996 -18614.596778 -22775.043717    -84.213038
PE04  19660.351233   2730.234596  21962.737987   -294.010377
PE05  14738.147467 -23501.914311 -10331.321224   4706.326112
PE07 -24398.850946  14372.053980  -8627.966782    -96.219499
PE08 -19196.301938  -3211.264137 -22307.179110   -201.541057
PE09  24363.339511 -14324.012683   8782.292449   -284.615416
PE10  28490.166883   4156.310350   6863.942834   -590.964985
PE11  24608.666310  -3263.530823  16131.092046   3279.520565
PE12  27679.403217  10240.291194  -2389.538984   -844.822717
PE13 -24990.667106   2751.129532 -15605.912629    -19.804961
PE14 -12415.793940  26292.678751 -14462.961673     -1.248701
PE15 -27509.905054 -10512.792334   2956.935632    -77.935223
PE18   5838.491980 -18770.761025  12933.541215    163.541395
PE19    894.872761  19804.677918  21981.856000   -894.930336
PE21  -4013.671750  25855.822635  13825.429240   -571.824383
PE24  15302.997932  -8007.009288 -24061.202245   -519.161915
PE25   4275.922405 -25659.676058 -14135.323227     -1.108965
PE26  -7228.526571  14611.620286 -24694.141273    327.230352
PE27 -15068.672714   8495.374992  24014.140341   -239.067753
PE30 -17049.703008 -14009.735495  19723.487859   -790.847166
PE31  17106.969768  13641.119790 -19929.394412    -12.908068
PE33  13307.669515  17465.453601 -19837.788575      5.252395
PE34 -13922.242590 -17395.410596  19494.428622    -86.690735
PE36   7912.959449 -14194.350973  24750.792235   -166.070742
PG01  20687.953203  13777.723568 -10187.708672    165.080275
PG02  16108.321027  14222.152113 -15261.050219   -506.948574
PG03  11538.269751  21974.315026   9462.616037     97.517210
PG04  10759.284569  10697.744144  21812.903189    255.351851
PG05  -6067.205081 -25739.093242   1702.991851   -156.402026
PG06  15646.041259  -8650.912833  19746.869168    458.761984
PG07  25982.313453   5446.266986  -3312.111657    -27.033042
PG08   3517.864597  16737.488343 -20295.257235   -160.022273
PG09  19247.811826   -933.078601  18219.078005     45.643015
PG10 -12170.353574   9969.799564 -21139.637465    -67.689946
PG11   4205.436746 -14540.167768  21851.067834   -524.299692
PG12 -10127.230239 -22686.021188   9212.539798   -463.661604
PG13   7756.540746 -19309.869816 -16579.321894    611.758819
PG14  14504.698229  -5961.567783 -21399.849410    287.419200
PG15  -5613.567128 -16883.388616 -20150.622429    113.019086
PG16  -1332.425873  25244.177245   7008.199749   -392.467373
PG17  22438.015278 -12075.083381  -7318.606532    720.818095
PG18 -25702.738226  -4360.108723  -5552.051753   -521.821362
PG19  20644.829100 -16363.803126    900.121628    420.814279
PG20   1650.488395 -22368.609241  14416.818633    393.612154
PG21  12603.747710  15226.362727 -17680.156814    139.717246
PG22  11329.567832 -14336.144561 -18944.155845     55.423921
PG23 -15729.439281  -3961.899274 -21051.216449    127.337714
PG24 -15034.200696 -15361.620008 -16268.399482   -405.761476
PG25 -15681.192207 -12803.802890  16999.062068    483.765617
PG26  -5981.092758  20191.062338  15822.737177    204.089313
PG28 -18065.570779   7989.717184  17727.168881    -86.651174
PG29 -18612.674726  -1514.821650  18880.156494   -609.200211
PG30  22974.265015  -3032.870976 -13091.103041   -450.419330
PG31 -10099.681472  12402.483792  21054.065499   -227.042767
PG32 -20907.609234  15451.996090  -4664.096493   -601.746463
PJ02 -27877.921599  24590.969544  25034.023305     -0.903304
PJ04 -20745.434913  34281.830006  -8319.456508     75.690329
PR01  13098.917705  -4914.552835  21328.028924     73.563720
PR02  13762.701124 -19605.090673   8915.955963    -22.365411
PR03   6212.322476 -23249.411766  -8510.050824     92.041644
PR04  -4191.800625 -13936.364650 -20926.402515    217.828579
PR05 -12549.192402   2724.589077 -22023.534098    124.747068
PR07  -5631.387395  22991.569248   9471.542742     72.683884
PR08   4600.922235  13703.826632  21064.666267    -73.880055
PR09  -7467.833018   8829.106514  22754.163621    162.095289
PR11  15159.161591  20524.050072   -175.834840   -224.946119
PR12  16453.503293   8363.776671 -17580.116163     35.150335
PR13   8993.494282  -6448.364962 -23002.901645    -42.869644
PR14  -5644.605994 -19924.604160 -14878.204960     25.878969
PR15 -15532.363228 -20164.742262   1674.029450     83.454087
PR16 -16485.991989  -8577.149612  17459.838355     22.115849
PR17   2856.843204 -10779.772929  22952.521680     48.733846
PR18 -14556.827835  -7669.811313  19494.266238    119.982187
PR19 -24274.519612  -2172.206983   7540.280564   -260.519538
PR20 -20714.497128   6846.941488 -13166.140697   -106.130138
PR21  -2487.288855  10658.493526 -23034.970570    -65.681177
PR22  15366.005476   8063.528472 -18670.312910    101.170904
PR24  20007.585534  -8159.951183  13569.166391    -38.273900
PR25  -3271.522894  10949.000002 -22796.682149     10.366124
PR26   4160.446651  14384.340831  20675.364837 999999.999999
EOF
